NORAD_CAT_ID,OBJECT_NAME,OBJECT_TYPE,EPOCH,MEAN_MOTION,ECCENTRICITY,INCLINATION,RA_OF_ASC_NODE,ARG_OF_PERICENTER,MEAN_ANOMALY,BSTAR,MEAN_MOTION_DOT,MEAN_MOTION_DDOT,TLE_LINE0,TLE_LINE1,TLE_LINE2,SEMIMAJOR_AXIS,PERIOD,APOGEE,PERIGEE,DECAYED
49408.0,STARLINK-3151,PAYLOAD,2024-05-07 19:58:44,15.08847205,0.0001317,53.2172,0.7289,99.9249,260.1892,-0.00044783,-7.409e-05,0.0,0 STARLINK-3151,1 49408U 21104A   24128.83246206 -.00007409  00000-0 -44783-3 0  9992,2 49408  53.2172   0.7289 0001317  99.9249 260.1892 15.08847205138456,6917.858,95.437,540.634,538.812,0.0
49408.0,STARLINK-3151,PAYLOAD,2024-05-07 21:34:07,15.0884431,0.0001329,53.2175,0.4316,97.0436,263.0708,-0.00043786,-7.25e-05,0.0,0 STARLINK-3151,1 49408U 21104A   24128.89870265 -.00007250  00000-0 -43786-3 0  9992,2 49408  53.2175   0.4316 0001329  97.0436 263.0708 15.08844310137368,6917.867,95.437,540.652,538.813,0.0
49408.0,STARLINK-3151,PAYLOAD,2024-05-08 08:41:50,15.08823675,0.0001619,53.2171,358.3501,86.7658,273.3519,-6.0493e-05,-1.25e-05,0.0,0 STARLINK-3151,1 49408U 21104A   24129.36239462 -.00001250  00000-0 -60493-4 0  9992,2 49408  53.2171 358.3501 0001619  86.7658 273.3519 15.08823675138533,6917.93,95.439,540.915,538.675,0.0
49408.0,STARLINK-3151,PAYLOAD,2024-05-08 15:03:23,15.08818823,0.0001401,53.2166,357.1587,98.3158,261.7993,0.00025128,3.711e-05,0.0,0 STARLINK-3151,1 49408U 21104A   24129.62735965  .00003711  00000-0  25128-3 0  9997,2 49408  53.2166 357.1587 0001401  98.3158 261.7993 15.08818823137479,6917.945,95.439,540.779,538.841,0.0
49408.0,STARLINK-3151,PAYLOAD,2024-05-08 21:24:56,15.08826695,0.0001265,53.217,355.9693,97.0883,263.0253,-7.1637e-05,-1.427e-05,0.0,0 STARLINK-3151,1 49408U 21104A   24129.89232004 -.00001427  00000-0 -71637-4 0  9993,2 49408  53.2170 355.9693 0001265  97.0883 263.0253 15.08826695137512,6917.921,95.438,540.661,538.911,0.0
49408.0,STARLINK-3151,PAYLOAD,2024-05-09 19:40:20,15.08839132,0.0001473,53.2173,351.8061,96.0095,264.1065,0.00045622,6.98e-05,0.0,0 STARLINK-3151,1 49408U 21104A   24130.81968704  .00006980  00000-0  45622-3 0  9991,2 49408  53.2173 351.8061 0001473  96.0095 264.1065 15.08839132138754,6917.883,95.438,540.767,538.729,0.0
49408.0,STARLINK-3151,PAYLOAD,2024-05-09 21:15:44,15.08841432,0.0001504,53.2171,351.5102,89.8853,270.2311,0.00059689,9.225e-05,0.0,0 STARLINK-3151,1 49408U 21104A   24130.88592806  .00009225  00000-0  59689-3 0  9997,2 49408  53.2171 351.5102 0001504  89.8853 270.2311 15.08841432137669,6917.876,95.437,540.781,538.701,0.0
49408.0,STARLINK-3151,PAYLOAD,2024-05-10 00:26:30,15.08850443,0.0001492,53.2171,350.9144,92.8206,267.2957,0.00075157,0.00011697,0.0,0 STARLINK-3151,1 49408U 21104A   24131.01840582  .00011697  00000-0  75157-3 0  9994,2 49408  53.2171 350.9144 0001492  92.8206 267.2957 15.08850443138788,6917.848,95.437,540.746,538.681,0.0
49408.0,STARLINK-3151,PAYLOAD,2024-05-10 21:06:30,15.08857188,0.0001736,53.2187,347.0491,107.6085,252.5097,0.00069336,0.00010769,0.0,0 STARLINK-3151,1 49408U 21104A   24131.87952478  .00010769  00000-0  69336-3 0  9997,2 49408  53.2187 347.0491 0001736 107.6085 252.5097 15.08857188138918,6917.828,95.436,540.894,538.492,0.0
49408.0,STARLINK-3151,PAYLOAD,2024-05-11 20:57:10,15.09007536,0.000151,53.218,342.5872,90.9234,269.1932,0.0020278,0.00032281,0.0,0 STARLINK-3151,1 49408U 21104A   24132.87303924  .00032281  00000-0  20278-2 0  9998,2 49408  53.2180 342.5872 0001510  90.9234 269.1932 15.09007536139068,6917.368,95.427,540.278,538.189,0.0
49408.0,STARLINK-3151,PAYLOAD,2024-05-12 06:29:26,15.08991273,0.0001577,53.2182,340.8043,93.2028,266.9145,6.3847e-05,7.32e-06,0.0,0 STARLINK-3151,1 49408U 21104A   24133.27044413  .00000732  00000-0  63847-4 0  9995,2 49408  53.2182 340.8043 0001577  93.2028 266.9145 15.08991273139128,6917.418,95.428,540.374,538.192,0.0
49408.0,STARLINK-3151,PAYLOAD,2024-05-12 14:26:20,15.08975244,0.0003278,53.2183,339.3184,81.8479,278.2885,0.00082001,0.00012835,0.0,0 STARLINK-3151,1 49408U 21104A   24133.60162543  .00012835  00000-0  82001-3 0  9996,2 49408  53.2183 339.3184 0003278  81.8479 278.2885 15.08975244138071,6917.467,95.429,541.6,537.064,0.0
49408.0,STARLINK-3151,PAYLOAD,2024-05-12 20:47:51,15.08937291,0.0001278,53.2177,338.1271,85.7083,274.4055,0.0019886,0.00031587,0.0,0 STARLINK-3151,1 49408U 21104A   24133.86656958  .00031587  00000-0  19886-2 0  9997,2 49408  53.2177 338.1271 0001278  85.7083 274.4055 15.08937291139214,6917.583,95.431,540.332,538.564,0.0
49408.0,STARLINK-3151,PAYLOAD,2024-05-13 06:20:08,15.08948908,0.0001186,53.2167,336.3434,81.5316,278.5811,0.0020336,0.00032322,0.0,0 STARLINK-3151,1 49408U 21104A   24134.26398292  .00032322  00000-0  20336-2 0  9996,2 49408  53.2167 336.3434 0001186  81.5316 278.5811 15.08948908139273,6917.548,95.431,540.233,538.592,0.0
49408.0,STARLINK-3151,PAYLOAD,2024-05-13 22:13:56,15.08920752,0.0001384,53.2172,333.3693,94.997,265.118,0.0017015,0.00026955,0.0,0 STARLINK-3151,1 49408U 21104A   24134.92635380  .00026955  00000-0  17015-2 0  9996,2 49408  53.2172 333.3693 0001384  94.9970 265.1180 15.08920752138274,6917.634,95.432,540.456,538.541,0.0
49408.0,STARLINK-3151,PAYLOAD,2024-05-13 23:49:19,15.08864137,6.66e-05,53.2183,333.075,201.2695,158.827,-0.0022036,-0.00035209,0.0,0 STARLINK-3151,1 49408U 21104A   24134.99258216 -.00035209  00000-0 -22036-2 0  9995,2 49408  53.2183 333.0750 0000666 201.2695 158.8270 15.08864137139381,6917.807,95.436,540.132,539.211,0.0
49408.0,STARLINK-3151,PAYLOAD,2024-05-14 06:10:53,15.08802621,0.0001901,53.217,331.882,91.6752,268.4458,0.00077463,0.00012049,0.0,0 STARLINK-3151,1 49408U 21104A   24135.25756353  .00012049  00000-0  77463-3 0  9990,2 49408  53.2170 331.8820 0001901  91.6752 268.4458 15.08802621139420,6917.995,95.44,541.175,538.545,0.0
49408.0,STARLINK-3151,PAYLOAD,2024-05-15 06:01:42,15.08804155,9.71e-05,53.2161,327.4218,233.1566,126.9337,0.00072848,0.00011314,0.0,0 STARLINK-3151,1 49408U 21104A   24136.25118161  .00011314  00000-0  72848-3 0  9996,2 49408  53.2161 327.4218 0000971 233.1566 126.9337 15.08804155139578,6917.99,95.44,540.527,539.183,0.0
49408.0,STARLINK-3151,PAYLOAD,2024-05-15 20:20:13,15.08776572,9.85e-05,53.218,324.7446,99.2084,260.9019,-0.00024216,-4.133e-05,0.0,0 STARLINK-3151,1 49408U 21104A   24136.84737648 -.00004133  00000-0 -24216-3 0  9997,2 49408  53.2180 324.7446 0000985  99.2084 260.9019 15.08776572139660,6918.074,95.442,540.621,539.258,0.0
49408.0,STARLINK-3151,PAYLOAD,2024-05-16 12:14:07,15.08770689,0.0001059,53.2177,321.7725,83.5836,276.5277,-6.6455e-05,-1.343e-05,0.0,0 STARLINK-3151,1 49408U 21104A   24137.50981040 -.00001343  00000-0 -66455-4 0  9990,2 49408  53.2177 321.7725 0001059  83.5836 276.5277 15.08770689138668,6918.092,95.442,540.69,539.225,0.0
49408.0,STARLINK-3151,PAYLOAD,2024-05-16 18:35:40,15.08784266,0.0001522,53.2156,320.5809,94.5168,265.5998,0.00025701,3.799e-05,0.0,0 STARLINK-3151,1 49408U 21104A   24137.77477889  .00003799  00000-0  25701-3 0  9993,2 49408  53.2156 320.5809 0001522  94.5168 265.5998 15.08784266138709,6918.051,95.441,540.969,538.863,0.0
49408.0,STARLINK-3151,PAYLOAD,2024-05-17 05:43:25,15.08754645,0.0001921,53.2175,318.5,99.6329,260.488,-0.00013469,-2.426e-05,0.0,0 STARLINK-3151,1 49408U 21104A   24138.23849237 -.00002426  00000-0 -13469-3 0  9991,2 49408  53.2175 318.5000 0001921  99.6329 260.4880 15.08754645139879,6918.141,95.443,541.335,538.677,0.0
49408.0,STARLINK-3151,PAYLOAD,2024-05-17 18:26:34,15.0874235,0.0002924,53.2173,316.1197,103.3966,256.7352,-0.0001244,-2.263e-05,0.0,0 STARLINK-3151,1 49408U 21104A   24138.76845302 -.00002263  00000-0 -12440-3 0  9995,2 49408  53.2173 316.1197 0002924 103.3966 256.7352 15.08742350139953,6918.179,95.444,542.067,538.021,0.0
49408.0,STARLINK-3151,PAYLOAD,2024-05-18 18:17:24,15.08803748,0.0001353,53.2133,311.6599,83.302,276.8126,0.0013685,0.00021537,0.0,0 STARLINK-3151,1 49408U 21104A   24139.76208942  .00021537  00000-0  13685-2 0  9993,2 49408  53.2133 311.6599 0001353  83.3020 276.8126 15.08803748140108,6917.991,95.44,540.792,538.92,0.0
49408.0,STARLINK-3151,PAYLOAD,2024-05-19 10:11:17,15.08802236,0.0001667,53.21,308.6831,87.8503,272.268,0.00069778,0.00010823,0.0,0 STARLINK-3151,1 49408U 21104A   24140.42451082  .00010823  00000-0  69778-3 0  9994,2 49408  53.2100 308.6831 0001667  87.8503 272.2680 15.08802236139104,6917.996,95.44,541.014,538.708,0.0
49408.0,STARLINK-3151,PAYLOAD,2024-05-19 18:08:13,15.08832028,0.0001381,53.2153,307.1988,87.5416,272.5734,0.00092955,0.00014534,0.0,0 STARLINK-3151,1 49408U 21104A   24140.75571028  .00014534  00000-0  92955-3 0  9999,2 49408  53.2153 307.1988 0001381  87.5416 272.5734 15.08832028140255,6917.905,95.438,540.725,538.814,0.0
49408.0,STARLINK-3151,PAYLOAD,2024-05-20 14:48:13,15.08850011,0.0001213,53.2168,303.3371,99.9095,260.2035,0.00074846,0.00011647,0.0,0 STARLINK-3151,1 49408U 21104A   24141.61682351  .00011647  00000-0  74846-3 0  9998,2 49408  53.2168 303.3371 0001213  99.9095 260.2035 15.08850011139280,6917.85,95.437,540.554,538.876,0.0
49408.0,STARLINK-3151,PAYLOAD,2024-05-20 21:09:45,15.0886982,0.0001708,53.2171,302.146,123.2521,236.8635,0.00089862,0.00014054,0.0,0 STARLINK-3151,1 49408U 21104A   24141.88177655  .00014054  00000-0  89862-3 0  9992,2 49408  53.2171 302.1460 0001708 123.2521 236.8635 15.08869820140425,6917.789,95.436,540.836,538.473,0.0
49408.0,STARLINK-3151,PAYLOAD,2024-05-21 14:39:00,15.08847533,0.0001944,53.2169,298.8753,133.9289,226.1864,0.00012105,1.639e-05,0.0,0 STARLINK-3151,1 49408U 21104A   24142.61041730  .00001639  00000-0  12105-3 0  9999,2 49408  53.2169 298.8753 0001944 133.9289 226.1864 15.08847533139431,6917.857,95.437,541.067,538.378,0.0
49408.0,STARLINK-3151,PAYLOAD,2024-05-21 21:00:32,15.08858692,0.0001255,53.217,297.6869,115.3312,244.781,0.0015419,0.00024349,0.0,0 STARLINK-3151,1 49408U 21104A   24142.87537773  .00024349  00000-0  15419-2 0  9997,2 49408  53.2170 297.6869 0001255 115.3312 244.7810 15.08858692140576,6917.823,95.436,540.556,538.82,0.0
